#dP2019  1  1  0  0  0.00000000      96 __u+U ITR00 FIT  IAC
## 2034 172800.00000000   900.00000000 58484 0.0000000000000
+   92   C01C02C03C04C05C06C07C08C09C10C11C12C13C14E01E02E03
+        E04E05E07E08E09E11E12E13E14E15E18E19E21E24E25E26E27
+        E30E31E33E36G01G02G03G04G05G06G07G08G09G10G11G12G13
+        G14G15G16G17G18G19G20G21G22G23G24G25G26G27G28G29G30
+        G31G32R01R02R03R04R05R07R08R09R10R11R13R14R15R17R18
+        R19R20R21R22R23R24R26  0  0  0  0  0  0  0  0  0  0
++        13 12 13 13 12  9  9  9  8  9  8  8  8  8  5  5  5
++         6  5  5  6  6  5  5  6  5  7  5  5  5  5  5  5  5
++         5  5  6  8  3  4  4  4  4  4  4  4  3  4  4  4  4
++         4  4  3  4  4  4  4  4  4  4  4  4  4  3  4  4  3
++         4  4  6  5  5  5  6  5  6  5  5  5  5  5  6  6  5
++         5  5  5  5  5  6  8  0  0  0  0  0  0  0  0  0  0
%c M  cc GPS ccc cccc cccc cccc cccc ccccc ccccc ccccc ccccc
%c cc cc ccc ccc cccc cccc cccc cccc ccccc ccccc ccccc ccccc
%f  0.0000000  0.000000000  0.00000000000  0.000000000000000
%f  0.0000000  0.000000000  0.00000000000  0.000000000000000
%i    0    0    0    0      0      0      0      0         0
%i    0    0    0    0      0      0      0      0         0
/*                                                          
/*   RSA / INFORMATION & ANALYSIS CENTER (IAC) OF MCC       
/*   ULTRA-RAPID DETERMINATION                              
/* PCV:IGS14_2029 OL/AL:FES2004  NONE     YN ORB:CoN CLK:CoN
*  2019 01 01  7 15  0.00000000
PC01 -32300.178935  27119.200617   -496.697639     32.774336
PC02   4383.687626  41899.086840   -576.842202   -212.841508
PC03 -14709.282007  39501.074090   -482.669853   -108.643641
PC04 -39666.157618  14346.644183   -403.103135   -232.372726
PC05  21928.557541  36005.608734   -477.522303    -16.416483
PC06 -23876.342836  26652.508768  22316.279946    220.118804
PC07 -14123.509100  37571.920864  13755.951150    222.996015
PC08  -6371.215903  22222.656911 -35148.607228     77.804827
PC09  -8806.920803  26798.666479  31418.516053    413.347027
PC10  -3348.332287  42233.646872   -265.832341   -370.149597
PC11 -18619.027226 -12875.985059  16424.050283   -114.944584
PC12  11752.309575 -13256.818505  21606.428153    314.781286
PC13   4900.058821  28854.880912 -30196.122662   -460.158229
PC14    253.454898 -21764.651156 -17440.344861    607.073678
PE01   1426.292204 -29245.618499  -4352.379942   -511.310688
PE02  -1404.955393  29242.846159   4321.262293     41.495948
PE03  -8817.218294  21328.999712  18535.202158   -117.210681
PE04 -11404.353953 -13000.440824 -24025.445178   -190.873131
PE05 -23988.223231  17208.195138   2154.970395    132.685991
PE07  25075.163373  -3039.514703  15425.443076   -104.316438
PE08  11494.591693  12736.067769  24116.515451   6432.149107
PE09 -25010.151514   3344.654244 -15487.906334   6571.455845
PE11 -27363.836634  -7424.770043  -8477.641529   5718.624681
PE12 -20548.539313 -18381.282743  10767.295987   5844.178687
PE13  27412.002757   7408.902013   8368.580314    381.190740
PE14  27964.170872   3974.294795  -9312.490052   6466.451417
PE15  20956.733993  18112.803604 -10418.441047    924.168939
PE18 -26105.254275   7715.389214  -5631.785087   5639.508891
PE19  10755.227879 -21456.281733 -17330.621158     -9.463136
PE21  12612.480210 -17188.974183 -20534.059340   -512.226867
PE24 -16264.117629  -4360.548244  24339.816439   6308.945469
PE25 -12634.254320  17145.478632  20564.273311   1937.072029
PE26  18081.028705  -7569.861462  22186.928758   5070.292822
PE27  16209.077289   4899.697827 -24270.925760    558.690964
PE30  10443.455242  23786.171029 -14180.716657   5224.060002
PE31 -10306.757152 -24086.162443  13786.764421    943.953185
PE33  -2208.070345 -18267.868715  23198.010612    847.843797
PE36 -17851.319972   7664.624336 -22321.836432    764.870354
PG01  20784.210672  11199.838619  12298.239111   -138.045825
PG02 -12998.778436 -21843.592524   8640.661808   -101.258244
PG03  15298.809299   1757.667381  21594.378404    174.084426
PG04   3253.092518  15057.157346 -21862.416859   -122.090868
PG05  -5256.563332 -20800.457953 -15645.933430      0.637166
PG06  -1440.251168 -19791.452595  17684.236073    305.559283
PG07  16484.167221  -2894.313378 -20481.795768     59.944130
PG08  19389.355822   7490.629017 -16587.855787   -127.557306
PG09  25140.939346  -7881.254668  -3446.989835    476.918414
PG10 -11116.529752  23605.871645  -4339.678892    142.879562
PG11  24657.799773   9213.476723   1922.248551   -681.327554
PG12 -13421.178006  -5761.445787  21988.024942    279.937489
PG13 -11930.844143 -12928.696620 -20026.359021    -79.770244
PG14  -4831.303498  15552.773476  21251.862638    -93.832342
PG15 -22086.376217  -4816.853860 -14500.479885   -334.035643
PG16   2739.518476  20735.758055 -16269.875552    -10.039595
PG17  14889.325220 -13880.755346  17411.924284    -10.806436
PG18  19564.912307  17847.606249   2396.351018     11.365202
PG19   5520.386147 -14739.678942  21121.842242   -367.983933
PG20 -14188.015164  17879.873982 -13589.845566    520.618996
PG21 -13995.723822   6963.414529 -20660.895780   -277.130332
PG22  13457.829482  10132.819475  20773.070813   -612.422155
PG23  25968.162666   -591.221782   6809.188884   -201.869297
PG24 -21365.524081 -13995.830564   7729.251335    -60.233583
PG25 -16392.360862   6943.273577  19436.951368   -699.534372
PG26  -2631.410506  25357.824399  -7148.520018     83.955257
PG27   9679.362592  12710.572219 -21352.188122    -41.535025
PG28  13380.684897 -22327.287740  -4868.378350    760.520075
PG29 -26268.466934   3887.595558   -527.527824    303.043312
PG30   8336.529955 -13961.293254 -20958.635255    -28.801950
PG31   3256.057213  21034.014625  15617.835790     68.858565
PG32 -12222.780954  15396.838960  17852.212752   -294.375636
PR01  19476.851439 -11271.028327  11991.994634     37.281676
PR02  14602.032480 -19355.432278  -7979.767890    347.203592
PR03    771.331833 -14631.823688 -20860.602328    153.262210
PR04 -13766.936359   -881.926917 -21443.467327    289.609869
PR05 -19738.353340  12654.364647 -10018.468770     18.970346
PR07   -277.845851  14313.315851  21128.426455    -54.950385
PR08  13322.078430   1538.484201  21743.220023     19.755573
PR09  -1407.034934  21660.820546  13464.540821     46.691847
PR10   6841.092885  24527.678582  -2098.118981     38.744315
PR11  12188.998468  13356.020194 -17994.694282    -52.068214
PR13   1548.703913 -20974.009295 -14451.274999    -18.507606
PR14  -7034.860693 -24427.771597   2084.545847     34.508800
PR15 -11989.878071 -14138.236385  17548.415269     99.086677
PR17 -10635.761095 -12465.214188  19578.449615    192.558068
PR18 -22934.752691  -9447.360608   5848.324218     28.993085
PR19 -22816.284628  -1846.330143 -11253.506824    -62.293095
PR20  -8292.992542   8090.692061 -22706.018771   -364.183203
PR21  11123.773175  12391.036224 -19305.183034    -23.091975
PR22  23845.740986   8609.849247  -3340.352787    -64.365613
PR23  20445.618148  -1157.400270  15207.114945    200.437180
PR24   6720.229961  -8833.217337  22949.802802   -175.558174
PR26 -10163.631129   7465.724698 -22160.666486     13.442495
EOF
